{
  "norad_id": 58462,
  "name": "GNOMES-4",
  "history": [
    {
      "epoch": "2026-03-28T22:24:30.466944Z",
      "apogee_km": 573.5678647589975,
      "perigee_km": 558.081996378397,
      "latitude_deg": -4.0215234105031144e-05,
      "longitude_deg": -14.4832591454902,
      "height_km": 575.2198075257998,
      "semi_major_axis_km": 6943.9619305686965,
      "eccentricity": 0.00111506,
      "inclination_deg": 97.5064,
      "raan_deg": 147.9907,
      "arg_perigee_deg": 215.2128,
      "mean_anomaly_deg": 144.836,
      "mean_motion_rev_day": 15.00347176
    },
    {
      "epoch": "2026-03-29T04:48:39.553056Z",
      "apogee_km": 573.5898325633079,
      "perigee_km": 558.0326109672651,
      "latitude_deg": 3.2414675953783356e-05,
      "longitude_deg": -110.52656970148013,
      "height_km": 575.3010475474796,
      "semi_major_axis_km": 6943.948221765287,
      "eccentricity": 0.0011202,
      "inclination_deg": 97.5063,
      "raan_deg": 148.2482,
      "arg_perigee_deg": 214.3628,
      "mean_anomaly_deg": 145.6873,
      "mean_motion_rev_day": 15.00351619
    },
    {
      "epoch": "2026-03-30T04:49:13.298304Z",
      "apogee_km": 573.652122259844,
      "perigee_km": 557.9102597208694,
      "latitude_deg": -2.381244537371741e-05,
      "longitude_deg": -110.68759683501625,
      "height_km": 575.5851581080924,
      "semi_major_axis_km": 6943.918190990356,
      "eccentricity": 0.0011335,
      "inclination_deg": 97.5058,
      "raan_deg": 149.2138,
      "arg_perigee_deg": 211.1591,
      "mean_anomaly_deg": 148.8962,
      "mean_motion_rev_day": 15.00361352
    },
    {
      "epoch": "2026-03-30T06:25:15.528576Z",
      "apogee_km": 573.658837596261,
      "perigee_km": 557.9030877389678,
      "latitude_deg": 2.776806240688033e-05,
      "longitude_deg": -134.69833142469415,
      "height_km": 575.6057008743052,
      "semi_major_axis_km": 6943.917962667614,
      "eccentricity": 0.0011345,
      "inclination_deg": 97.5057,
      "raan_deg": 149.2781,
      "arg_perigee_deg": 210.9498,
      "mean_anomaly_deg": 149.1059,
      "mean_motion_rev_day": 15.00361426
    },
    {
      "epoch": "2026-03-30T14:25:26.634144Z",
      "apogee_km": 573.679497910548,
      "perigee_km": 557.8614156022068,
      "latitude_deg": -5.3745746523779644e-05,
      "longitude_deg": 105.24873142455633,
      "height_km": 575.6876123528522,
      "semi_major_axis_km": 6943.907456756377,
      "eccentricity": 0.00113899,
      "inclination_deg": 97.5055,
      "raan_deg": 149.6001,
      "arg_perigee_deg": 210.0108,
      "mean_anomaly_deg": 150.0464,
      "mean_motion_rev_day": 15.00364831
    },
    {
      "epoch": "2026-03-30T22:25:37.680096Z",
      "apogee_km": 573.6967300901188,
      "perigee_km": 557.8246465101101,
      "latitude_deg": 3.629211923028894e-05,
      "longitude_deg": -14.804079124707531,
      "height_km": 575.774054705658,
      "semi_major_axis_km": 6943.897688300114,
      "eccentricity": 0.00114288,
      "inclination_deg": 97.5054,
      "raan_deg": 149.922,
      "arg_perigee_deg": 208.9408,
      "mean_anomaly_deg": 151.1184,
      "mean_motion_rev_day": 15.00367997
    },
    {
      "epoch": "2026-03-31T20:50:08.323296Z",
      "apogee_km": 573.7568566868895,
      "perigee_km": 557.7137341355719,
      "latitude_deg": -1.0083199383853283e-05,
      "longitude_deg": 9.049163359316596,
      "height_km": 576.0040524956827,
      "semi_major_axis_km": 6943.872295411231,
      "eccentricity": 0.0011552,
      "inclination_deg": 97.5049,
      "raan_deg": 150.8232,
      "arg_perigee_deg": 206.148,
      "mean_anomaly_deg": 153.9162,
      "mean_motion_rev_day": 15.00376227
    },
    {
      "epoch": "2026-04-01T20:50:40.697376Z",
      "apogee_km": 573.8199997483243,
      "perigee_km": 557.6102713231285,
      "latitude_deg": 3.404344263926438e-05,
      "longitude_deg": 8.893652536506213,
      "height_km": 576.2349789628087,
      "semi_major_axis_km": 6943.852135535726,
      "eccentricity": 0.0011672,
      "inclination_deg": 97.5041,
      "raan_deg": 151.7886,
      "arg_perigee_deg": 203.1539,
      "mean_anomaly_deg": 156.9161,
      "mean_motion_rev_day": 15.00382761
    },
    {
      "epoch": "2026-04-02T20:51:12.477888Z",
      "apogee_km": 573.8685253417743,
      "perigee_km": 557.4852908070634,
      "latitude_deg": -4.492672856245578e-05,
      "longitude_deg": 8.740637323897246,
      "height_km": 576.433382103391,
      "semi_major_axis_km": 6943.813908074419,
      "eccentricity": 0.0011797,
      "inclination_deg": 97.5034,
      "raan_deg": 152.754,
      "arg_perigee_deg": 200.1746,
      "mean_anomaly_deg": 159.9013,
      "mean_motion_rev_day": 15.00395151
    },
    {
      "epoch": "2026-04-02T22:27:14.581152Z",
      "apogee_km": 573.8736004103766,
      "perigee_km": 557.4732922695839,
      "latitude_deg": -1.9322655789171812e-05,
      "longitude_deg": -15.269563242541793,
      "height_km": 576.4472601640974,
      "semi_major_axis_km": 6943.8104463399795,
      "eccentricity": 0.00118093,
      "inclination_deg": 97.5033,
      "raan_deg": 152.8183,
      "arg_perigee_deg": 199.9843,
      "mean_anomaly_deg": 160.092,
      "mean_motion_rev_day": 15.00396273
    },
    {
      "epoch": "2026-04-03T20:51:43.433280Z",
      "apogee_km": 573.8983180132682,
      "perigee_km": 557.3527206821664,
      "latitude_deg": -1.1868974002647212e-06,
      "longitude_deg": 8.591152706935935,
      "height_km": 576.591506105304,
      "semi_major_axis_km": 6943.762519347717,
      "eccentricity": 0.0011914,
      "inclination_deg": 97.5027,
      "raan_deg": 153.7195,
      "arg_perigee_deg": 197.2903,
      "mean_anomaly_deg": 162.7917,
      "mean_motion_rev_day": 15.00411807
    },
    {
      "epoch": "2026-04-04T20:52:13.598112Z",
      "apogee_km": 573.9441180337653,
      "perigee_km": 557.2444443025561,
      "latitude_deg": 2.5360387264769814e-05,
      "longitude_deg": 8.444772498793489,
      "height_km": 576.750708935194,
      "semi_major_axis_km": 6943.73128116816,
      "eccentricity": 0.0012025,
      "inclination_deg": 97.5021,
      "raan_deg": 154.6848,
      "arg_perigee_deg": 194.3336,
      "mean_anomaly_deg": 165.7549,
      "mean_motion_rev_day": 15.00421932
    },
    {
      "epoch": "2026-04-05T14:28:35.368032Z",
      "apogee_km": 573.9788510786648,
      "perigee_km": 557.1641055018072,
      "latitude_deg": 1.0582219419000235e-05,
      "longitude_deg": 104.33891056420882,
      "height_km": 576.852660207444,
      "semi_major_axis_km": 6943.708478290236,
      "eccentricity": 0.00121079,
      "inclination_deg": 97.5017,
      "raan_deg": 155.3927,
      "arg_perigee_deg": 192.2785,
      "mean_anomaly_deg": 167.8146,
      "mean_motion_rev_day": 15.00429323
    },
    {
      "epoch": "2026-04-05T20:52:43.237632Z",
      "apogee_km": 573.9859412022997,
      "perigee_km": 557.1432985531246,
      "latitude_deg": -4.954372871638133e-06,
      "longitude_deg": 8.300493684888007,
      "height_km": 576.884234352994,
      "semi_major_axis_km": 6943.701619877712,
      "eccentricity": 0.0012128,
      "inclination_deg": 97.5016,
      "raan_deg": 155.65,
      "arg_perigee_deg": 191.452,
      "mean_anomaly_deg": 168.643,
      "mean_motion_rev_day": 15.00431546
    },
    {
      "epoch": "2026-04-06T06:28:54.975072Z",
      "apogee_km": 574.0006446043144,
      "perigee_km": 557.1113612394465,
      "latitude_deg": -7.34941946227585e-05,
      "longitude_deg": -135.7566961328608,
      "height_km": 576.9290622579119,
      "semi_major_axis_km": 6943.69300292188,
      "eccentricity": 0.00121616,
      "inclination_deg": 97.5014,
      "raan_deg": 156.0361,
      "arg_perigee_deg": 190.346,
      "mean_anomaly_deg": 169.7515,
      "mean_motion_rev_day": 15.00434339
    },
    {
      "epoch": "2026-04-07T14:29:33.599040Z",
      "apogee_km": 574.0892868100564,
      "perigee_km": 556.9680126708654,
      "latitude_deg": 2.366214088454089e-05,
      "longitude_deg": 104.0548204405214,
      "height_km": 577.0994248103528,
      "semi_major_axis_km": 6943.665649740461,
      "eccentricity": 0.00123287,
      "inclination_deg": 97.5009,
      "raan_deg": 157.3232,
      "arg_perigee_deg": 186.4781,
      "mean_anomaly_deg": 173.6286,
      "mean_motion_rev_day": 15.00443205
    },
    {
      "epoch": "2026-04-07T20:53:41.292384Z",
      "apogee_km": 574.1016934360814,
      "perigee_km": 556.9536192008381,
      "latitude_deg": 3.541473993774226e-05,
      "longitude_deg": 8.017236093872008,
      "height_km": 577.1238901645052,
      "semi_major_axis_km": 6943.6646563184595,
      "eccentricity": 0.0012348,
      "inclination_deg": 97.5008,
      "raan_deg": 157.5806,
      "arg_perigee_deg": 185.7,
      "mean_anomaly_deg": 174.4086,
      "mean_motion_rev_day": 15.00443527
    },
    {
      "epoch": "2026-04-08T14:30:02.215584Z",
      "apogee_km": 574.1491901231839,
      "perigee_km": 556.8810217009905,
      "latitude_deg": 3.5576790010235005e-05,
      "longitude_deg": 103.91480882120077,
      "height_km": 577.1957540486555,
      "semi_major_axis_km": 6943.652105912087,
      "eccentricity": 0.00124345,
      "inclination_deg": 97.5005,
      "raan_deg": 158.2884,
      "arg_perigee_deg": 183.6458,
      "mean_anomaly_deg": 176.4678,
      "mean_motion_rev_day": 15.00447595
    },
    {
      "epoch": "2026-04-09T20:54:38.089152Z",
      "apogee_km": 574.1880588928307,
      "perigee_km": 556.7928833521746,
      "latitude_deg": -6.322237744378792e-05,
      "longitude_deg": 7.738751921120797,
      "height_km": 577.2509990080567,
      "semi_major_axis_km": 6943.627471122502,
      "eccentricity": 0.0012526,
      "inclination_deg": 97.5001,
      "raan_deg": 159.5107,
      "arg_perigee_deg": 179.9491,
      "mean_anomaly_deg": 180.1736,
      "mean_motion_rev_day": 15.0045558
    },
    {
      "epoch": "2026-04-10T06:30:49.245120Z",
      "apogee_km": 574.2164758988893,
      "perigee_km": 556.7495220466735,
      "latitude_deg": -4.926788122787012e-06,
      "longitude_deg": -136.3160251908946,
      "height_km": 577.2774721358185,
      "semi_major_axis_km": 6943.619998972781,
      "eccentricity": 0.00125777,
      "inclination_deg": 97.5,
      "raan_deg": 159.8968,
      "arg_perigee_deg": 178.9006,
      "mean_anomaly_deg": 181.2248,
      "mean_motion_rev_day": 15.00458002
    },
    {
      "epoch": "2026-04-11T20:55:33.640032Z",
      "apogee_km": 574.2901573379431,
      "perigee_km": 556.6381345047812,
      "latitude_deg": -4.844124586738025e-05,
      "longitude_deg": 7.465360194445137,
      "height_km": 577.308591044439,
      "semi_major_axis_km": 6943.601145921361,
      "eccentricity": 0.0012711,
      "inclination_deg": 97.4994,
      "raan_deg": 161.4407,
      "arg_perigee_deg": 174.3673,
      "mean_anomaly_deg": 185.7696,
      "mean_motion_rev_day": 15.00464113
    }
  ]
}